CCSDS_OMM_VERS = 2.0
CREATION_DATE  = 
ORIGINATOR     = 

OBJECT_NAME    = STARLINK-36624
OBJECT_ID      = 2026-020V
CENTER_NAME    = EARTH
REF_FRAME      = TEME
TIME_SYSTEM    = UTC
MEAN_ELEMENT_THEORY = SGP/SGP4

EPOCH          = 2026-02-23T19:54:54.251712
MEAN_MOTION    = 15.76487846
ECCENTRICITY   = .0003211
INCLINATION    = 42.9987
RA_OF_ASC_NODE = 225.9585
ARG_OF_PERICENTER = 281.2069
MEAN_ANOMALY   = 78.8440

EPHEMERIS_TYPE = 0
CLASSIFICATION_TYPE = U
NORAD_CAT_ID   = 67636
ELEMENT_SET_NO = 999
REV_AT_EPOCH   = 390
BSTAR          = .18919993E-2
MEAN_MOTION_DOT = .32132E-2
MEAN_MOTION_DDOT = 0

CCSDS_OMM_VERS = 2.0
CREATION_DATE  = 
ORIGINATOR     = 

OBJECT_NAME    = STARLINK-36610
OBJECT_ID      = 2026-020W
CENTER_NAME    = EARTH
REF_FRAME      = TEME
TIME_SYSTEM    = UTC
MEAN_ELEMENT_THEORY = SGP/SGP4

EPOCH          = 2026-02-23T20:26:26.787552
MEAN_MOTION    = 15.76446766
ECCENTRICITY   = .00016654
INCLINATION    = 42.9971
RA_OF_ASC_NODE = 226.1355
ARG_OF_PERICENTER = 299.6002
MEAN_ANOMALY   = 60.4701

EPHEMERIS_TYPE = 0
CLASSIFICATION_TYPE = U
NORAD_CAT_ID   = 67637
ELEMENT_SET_NO = 999
REV_AT_EPOCH   = 390
BSTAR          = .21950607E-2
MEAN_MOTION_DOT = .374544E-2
MEAN_MOTION_DDOT = 0

CCSDS_OMM_VERS = 2.0
CREATION_DATE  = 
ORIGINATOR     = 

OBJECT_NAME    = STARLINK-36599
OBJECT_ID      = 2026-020X
CENTER_NAME    = EARTH
REF_FRAME      = TEME
TIME_SYSTEM    = UTC
MEAN_ELEMENT_THEORY = SGP/SGP4

EPOCH          = 2026-02-24T06:00:02.000160
MEAN_MOTION    = 15.76363901
ECCENTRICITY   = .00019803
INCLINATION    = 42.9991
RA_OF_ASC_NODE = 223.1243
ARG_OF_PERICENTER = 311.9062
MEAN_ANOMALY   = 27.7581

EPHEMERIS_TYPE = 0
CLASSIFICATION_TYPE = U
NORAD_CAT_ID   = 67638
ELEMENT_SET_NO = 999
REV_AT_EPOCH   = 523
BSTAR          = .21943703E-3
MEAN_MOTION_DOT = .35392E-3
MEAN_MOTION_DDOT = 0

CCSDS_OMM_VERS = 2.0
CREATION_DATE  = 
ORIGINATOR     = 

OBJECT_NAME    = STARLINK-36595
OBJECT_ID      = 2026-020Y
CENTER_NAME    = EARTH
REF_FRAME      = TEME
TIME_SYSTEM    = UTC
MEAN_ELEMENT_THEORY = SGP/SGP4

EPOCH          = 2026-02-23T22:47:55.667904
MEAN_MOTION    = 15.76402806
ECCENTRICITY   = .00016122
INCLINATION    = 42.9973
RA_OF_ASC_NODE = 225.1333
ARG_OF_PERICENTER = 277.1222
MEAN_ANOMALY   = 82.9464

EPHEMERIS_TYPE = 0
CLASSIFICATION_TYPE = U
NORAD_CAT_ID   = 67639
ELEMENT_SET_NO = 999
REV_AT_EPOCH   = 392
BSTAR          = .11411081E-2
MEAN_MOTION_DOT = .189857E-2
MEAN_MOTION_DDOT = 0

CCSDS_OMM_VERS = 2.0
CREATION_DATE  = 
ORIGINATOR     = 

OBJECT_NAME    = STARLINK-36570
OBJECT_ID      = 2026-020Z
CENTER_NAME    = EARTH
REF_FRAME      = TEME
TIME_SYSTEM    = UTC
MEAN_ELEMENT_THEORY = SGP/SGP4

EPOCH          = 2026-02-24T03:53:11.157216
MEAN_MOTION    = 15.76414139
ECCENTRICITY   = .00007139
INCLINATION    = 42.9966
RA_OF_ASC_NODE = 224.1572
ARG_OF_PERICENTER = 317.0888
MEAN_ANOMALY   = 42.9926

EPHEMERIS_TYPE = 0
CLASSIFICATION_TYPE = U
NORAD_CAT_ID   = 67640
ELEMENT_SET_NO = 999
REV_AT_EPOCH   = 395
BSTAR          = .15269202E-2
MEAN_MOTION_DOT = .25637E-2
MEAN_MOTION_DDOT = 0

CCSDS_OMM_VERS = 2.0
CREATION_DATE  = 
ORIGINATOR     = 

OBJECT_NAME    = STARLINK-36514
OBJECT_ID      = 2026-020AA
CENTER_NAME    = EARTH
REF_FRAME      = TEME
TIME_SYSTEM    = UTC
MEAN_ELEMENT_THEORY = SGP/SGP4

EPOCH          = 2026-02-24T06:00:02.000160
MEAN_MOTION    = 15.76349467
ECCENTRICITY   = .00018256
INCLINATION    = 42.9993
RA_OF_ASC_NODE = 223.0922
ARG_OF_PERICENTER = 264.4033
MEAN_ANOMALY   = 87.6950

EPHEMERIS_TYPE = 0
CLASSIFICATION_TYPE = U
NORAD_CAT_ID   = 67641
ELEMENT_SET_NO = 999
REV_AT_EPOCH   = 523
BSTAR          = .50804227E-3
MEAN_MOTION_DOT = .82995E-3
MEAN_MOTION_DDOT = 0

CCSDS_OMM_VERS = 2.0
CREATION_DATE  = 
ORIGINATOR     = 

OBJECT_NAME    = STARLINK-36556
OBJECT_ID      = 2026-020AB
CENTER_NAME    = EARTH
REF_FRAME      = TEME
TIME_SYSTEM    = UTC
MEAN_ELEMENT_THEORY = SGP/SGP4

EPOCH          = 2026-02-23T04:48:50.261472
MEAN_MOTION    = 15.76468815
ECCENTRICITY   = .0001943
INCLINATION    = 42.9989
RA_OF_ASC_NODE = 229.8429
ARG_OF_PERICENTER = 307.5707
MEAN_ANOMALY   = 52.4986

EPHEMERIS_TYPE = 0
CLASSIFICATION_TYPE = U
NORAD_CAT_ID   = 67642
ELEMENT_SET_NO = 999
REV_AT_EPOCH   = 380
BSTAR          = .19302E-2
MEAN_MOTION_DOT = .32778E-2
MEAN_MOTION_DDOT = 0

CCSDS_OMM_VERS = 2.0
CREATION_DATE  = 
ORIGINATOR     = 

OBJECT_NAME    = STARLINK-36533
OBJECT_ID      = 2026-020AC
CENTER_NAME    = EARTH
REF_FRAME      = TEME
TIME_SYSTEM    = UTC
MEAN_ELEMENT_THEORY = SGP/SGP4

EPOCH          = 2026-02-23T20:20:08.350368
MEAN_MOTION    = 15.76439854
ECCENTRICITY   = .00015556
INCLINATION    = 42.9966
RA_OF_ASC_NODE = 226.0988
ARG_OF_PERICENTER = 290.7223
MEAN_ANOMALY   = 69.3480

EPHEMERIS_TYPE = 0
CLASSIFICATION_TYPE = U
NORAD_CAT_ID   = 67643
ELEMENT_SET_NO = 999
REV_AT_EPOCH   = 390
BSTAR          = .19568735E-2
MEAN_MOTION_DOT = .332054E-2
MEAN_MOTION_DDOT = 0

CCSDS_OMM_VERS = 2.0
CREATION_DATE  = 
ORIGINATOR     = 

OBJECT_NAME    = STARLINK-36623
OBJECT_ID      = 2026-020AD
CENTER_NAME    = EARTH
REF_FRAME      = TEME
TIME_SYSTEM    = UTC
MEAN_ELEMENT_THEORY = SGP/SGP4

EPOCH          = 2026-02-24T03:46:52.694976
MEAN_MOTION    = 15.76475638
ECCENTRICITY   = .00016784
INCLINATION    = 42.9982
RA_OF_ASC_NODE = 224.1203
ARG_OF_PERICENTER = 303.3123
MEAN_ANOMALY   = 56.7586

EPHEMERIS_TYPE = 0
CLASSIFICATION_TYPE = U
NORAD_CAT_ID   = 67644
ELEMENT_SET_NO = 999
REV_AT_EPOCH   = 395
BSTAR          = .2506839E-2
MEAN_MOTION_DOT = .43128E-2
MEAN_MOTION_DDOT = 0

CCSDS_OMM_VERS = 2.0
CREATION_DATE  = 
ORIGINATOR     = 

OBJECT_NAME    = STARLINK-36619
OBJECT_ID      = 2026-020AE
CENTER_NAME    = EARTH
REF_FRAME      = TEME
TIME_SYSTEM    = UTC
MEAN_ELEMENT_THEORY = SGP/SGP4

EPOCH          = 2026-02-23T20:07:31.114848
MEAN_MOTION    = 15.76411279
ECCENTRICITY   = .00017076
INCLINATION    = 42.9965
RA_OF_ASC_NODE = 226.0280
ARG_OF_PERICENTER = 270.3778
MEAN_ANOMALY   = 89.6896

EPHEMERIS_TYPE = 0
CLASSIFICATION_TYPE = U
NORAD_CAT_ID   = 67645
ELEMENT_SET_NO = 999
REV_AT_EPOCH   = 390
BSTAR          = .91846955E-3
MEAN_MOTION_DOT = .152092E-2
MEAN_MOTION_DDOT = 0

CCSDS_OMM_VERS = 2.0
CREATION_DATE  = 
ORIGINATOR     = 

OBJECT_NAME    = ALSAT-3B
OBJECT_ID      = 2026-021A
CENTER_NAME    = EARTH
REF_FRAME      = TEME
TIME_SYSTEM    = UTC
MEAN_ELEMENT_THEORY = SGP/SGP4

EPOCH          = 2026-02-24T05:59:23.909856
MEAN_MOTION    = 15.23728641
ECCENTRICITY   = .00128511
INCLINATION    = 97.4690
RA_OF_ASC_NODE = 129.6451
ARG_OF_PERICENTER = 176.3408
MEAN_ANOMALY   = 183.7925

EPHEMERIS_TYPE = 0
CLASSIFICATION_TYPE = U
NORAD_CAT_ID   = 67646
ELEMENT_SET_NO = 999
REV_AT_EPOCH   = 367
BSTAR          = .2943379E-3
MEAN_MOTION_DOT = .7016E-4
MEAN_MOTION_DDOT = 0

CCSDS_OMM_VERS = 2.0
CREATION_DATE  = 
ORIGINATOR     = 

OBJECT_NAME    = CZ-2C R/B
OBJECT_ID      = 2026-021B
CENTER_NAME    = EARTH
REF_FRAME      = TEME
TIME_SYSTEM    = UTC
MEAN_ELEMENT_THEORY = SGP/SGP4

EPOCH          = 2026-02-24T06:04:14.524032
MEAN_MOTION    = 15.23703821
ECCENTRICITY   = .01527489
INCLINATION    = 97.6529
RA_OF_ASC_NODE = 130.4536
ARG_OF_PERICENTER = 58.0381
MEAN_ANOMALY   = 303.5602

EPHEMERIS_TYPE = 0
CLASSIFICATION_TYPE = U
NORAD_CAT_ID   = 67647
ELEMENT_SET_NO = 999
REV_AT_EPOCH   = 365
BSTAR          = .37794885E-3
MEAN_MOTION_DOT = .12559E-3
MEAN_MOTION_DDOT = 0

