STARLINK-36624          
1 67636U 26020V   26054.82979458  .00321320  00000+0  18920-2 0  9999
2 67636  42.9987 225.9585 0003211 281.2069  78.8440 15.76487846  3909
STARLINK-36610          
1 67637U 26020W   26054.85169893  .00374544  00000+0  21951-2 0  9991
2 67637  42.9971 226.1355 0001665 299.6002  60.4701 15.76446766  3905
STARLINK-36599          
1 67638U 26020X   26055.25002315  .00035392  00000+0  21944-3 0  9990
2 67638  42.9991 223.1243 0001980 311.9062  27.7581 15.76363901  5234
STARLINK-36595          
1 67639U 26020Y   26054.94994986  .00189857  00000+0  11411-2 0  9993
2 67639  42.9973 225.1333 0001612 277.1222  82.9464 15.76402806  3925
STARLINK-36570          
1 67640U 26020Z   26055.16193469  .00256370  00000+0  15269-2 0  9997
2 67640  42.9966 224.1572 0000713 317.0888  42.9926 15.76414139  3950
STARLINK-36514          
1 67641U 26020AA  26055.25002315  .00082995  00000+0  50804-3 0  9992
2 67641  42.9993 223.0922 0001825 264.4033  87.6950 15.76349467  5237
STARLINK-36556          
1 67642U 26020AB  26054.20058173  .00327780  00000+0  19302-2 0  9991
2 67642  42.9989 229.8429 0001943 307.5707  52.4986 15.76468815  3806
STARLINK-36533          
1 67643U 26020AC  26054.84731887  .00332054  00000+0  19569-2 0  9997
2 67643  42.9966 226.0988 0001555 290.7223  69.3480 15.76439854  3904
STARLINK-36623          
1 67644U 26020AD  26055.15755434  .00431280  00000+0  25068-2 0  9999
2 67644  42.9982 224.1203 0001678 303.3123  56.7586 15.76475638  3950
STARLINK-36619          
1 67645U 26020AE  26054.83855457  .00152092  00000+0  91847-3 0  9990
2 67645  42.9965 226.0280 0001707 270.3778  89.6896 15.76411279  3905
ALSAT-3B                
1 67646U 26021A   26055.24958229  .00007016  00000+0  29434-3 0  9997
2 67646  97.4690 129.6451 0012851 176.3408 183.7925 15.23728641  3670
CZ-2C R/B               
1 67647U 26021B   26055.25294588  .00012559  00000+0  37795-3 0  9997
2 67647  97.6529 130.4536 0152748  58.0381 303.5602 15.23703821  3659
